<?xml version="1.0" encoding="UTF-8"?>
<ndm xmlns:xsi="http://www.w3.org/2001/XMLSchema-instance" xsi:noNamespaceSchemaLocation="https://sanaregistry.org/r/ndmxml_unqualified/ndmxml-2.0.0-master-2.0.xsd">
<omm id="CCSDS_OMM_VERS" version="2.0">
<header><CREATION_DATE/><ORIGINATOR/></header><body><segment><metadata><OBJECT_NAME>KUIPER-00016</OBJECT_NAME><OBJECT_ID>2025-088J</OBJECT_ID><CENTER_NAME>EARTH</CENTER_NAME><REF_FRAME>TEME</REF_FRAME><TIME_SYSTEM>UTC</TIME_SYSTEM><MEAN_ELEMENT_THEORY>SGP4</MEAN_ELEMENT_THEORY></metadata><data><meanElements><EPOCH>2025-12-21T23:35:50.648640</EPOCH><MEAN_MOTION>14.79930816</MEAN_MOTION><ECCENTRICITY>.0013392</ECCENTRICITY><INCLINATION>51.9016</INCLINATION><RA_OF_ASC_NODE>95.2139</RA_OF_ASC_NODE><ARG_OF_PERICENTER>165.6952</ARG_OF_PERICENTER><MEAN_ANOMALY>194.4392</MEAN_ANOMALY></meanElements><tleParameters><EPHEMERIS_TYPE>0</EPHEMERIS_TYPE><CLASSIFICATION_TYPE>U</CLASSIFICATION_TYPE><NORAD_CAT_ID>63732</NORAD_CAT_ID><ELEMENT_SET_NO>999</ELEMENT_SET_NO><REV_AT_EPOCH>3582</REV_AT_EPOCH><BSTAR>-.19613E-3</BSTAR><MEAN_MOTION_DOT>-.1722E-4</MEAN_MOTION_DOT><MEAN_MOTION_DDOT>0</MEAN_MOTION_DDOT></tleParameters></data></segment></body></omm>
<omm id="CCSDS_OMM_VERS" version="2.0">
<header><CREATION_DATE/><ORIGINATOR/></header><body><segment><metadata><OBJECT_NAME>KUIPER-00018</OBJECT_NAME><OBJECT_ID>2025-088K</OBJECT_ID><CENTER_NAME>EARTH</CENTER_NAME><REF_FRAME>TEME</REF_FRAME><TIME_SYSTEM>UTC</TIME_SYSTEM><MEAN_ELEMENT_THEORY>SGP4</MEAN_ELEMENT_THEORY></metadata><data><meanElements><EPOCH>2025-12-21T12:33:02.860992</EPOCH><MEAN_MOTION>14.79919070</MEAN_MOTION><ECCENTRICITY>.00133102</ECCENTRICITY><INCLINATION>51.9019</INCLINATION><RA_OF_ASC_NODE>86.2045</RA_OF_ASC_NODE><ARG_OF_PERICENTER>188.6896</ARG_OF_PERICENTER><MEAN_ANOMALY>171.3838</MEAN_ANOMALY></meanElements><tleParameters><EPHEMERIS_TYPE>0</EPHEMERIS_TYPE><CLASSIFICATION_TYPE>U</CLASSIFICATION_TYPE><NORAD_CAT_ID>63733</NORAD_CAT_ID><ELEMENT_SET_NO>999</ELEMENT_SET_NO><REV_AT_EPOCH>3591</REV_AT_EPOCH><BSTAR>.44814393E-3</BSTAR><MEAN_MOTION_DOT>.3197E-4</MEAN_MOTION_DOT><MEAN_MOTION_DDOT>0</MEAN_MOTION_DDOT></tleParameters></data></segment></body></omm>
<omm id="CCSDS_OMM_VERS" version="2.0">
<header><CREATION_DATE/><ORIGINATOR/></header><body><segment><metadata><OBJECT_NAME>KUIPER-00019</OBJECT_NAME><OBJECT_ID>2025-088L</OBJECT_ID><CENTER_NAME>EARTH</CENTER_NAME><REF_FRAME>TEME</REF_FRAME><TIME_SYSTEM>UTC</TIME_SYSTEM><MEAN_ELEMENT_THEORY>SGP4</MEAN_ELEMENT_THEORY></metadata><data><meanElements><EPOCH>2025-12-21T15:48:58.040640</EPOCH><MEAN_MOTION>14.79930088</MEAN_MOTION><ECCENTRICITY>.0009132</ECCENTRICITY><INCLINATION>51.9001</INCLINATION><RA_OF_ASC_NODE>84.1476</RA_OF_ASC_NODE><ARG_OF_PERICENTER>198.8485</ARG_OF_PERICENTER><MEAN_ANOMALY>161.2140</MEAN_ANOMALY></meanElements><tleParameters><EPHEMERIS_TYPE>0</EPHEMERIS_TYPE><CLASSIFICATION_TYPE>U</CLASSIFICATION_TYPE><NORAD_CAT_ID>63734</NORAD_CAT_ID><ELEMENT_SET_NO>999</ELEMENT_SET_NO><REV_AT_EPOCH>3595</REV_AT_EPOCH><BSTAR>.27826E-3</BSTAR><MEAN_MOTION_DOT>.19E-4</MEAN_MOTION_DOT><MEAN_MOTION_DDOT>0</MEAN_MOTION_DDOT></tleParameters></data></segment></body></omm>
<omm id="CCSDS_OMM_VERS" version="2.0">
<header><CREATION_DATE/><ORIGINATOR/></header><body><segment><metadata><OBJECT_NAME>KUIPER-00020</OBJECT_NAME><OBJECT_ID>2025-088M</OBJECT_ID><CENTER_NAME>EARTH</CENTER_NAME><REF_FRAME>TEME</REF_FRAME><TIME_SYSTEM>UTC</TIME_SYSTEM><MEAN_ELEMENT_THEORY>SGP4</MEAN_ELEMENT_THEORY></metadata><data><meanElements><EPOCH>2025-12-21T12:29:07.739808</EPOCH><MEAN_MOTION>14.79930802</MEAN_MOTION><ECCENTRICITY>.00088256</ECCENTRICITY><INCLINATION>51.9026</INCLINATION><RA_OF_ASC_NODE>88.7443</RA_OF_ASC_NODE><ARG_OF_PERICENTER>178.2658</ARG_OF_PERICENTER><MEAN_ANOMALY>181.8336</MEAN_ANOMALY></meanElements><tleParameters><EPHEMERIS_TYPE>0</EPHEMERIS_TYPE><CLASSIFICATION_TYPE>U</CLASSIFICATION_TYPE><NORAD_CAT_ID>63735</NORAD_CAT_ID><ELEMENT_SET_NO>999</ELEMENT_SET_NO><REV_AT_EPOCH>3608</REV_AT_EPOCH><BSTAR>.13796414E-3</BSTAR><MEAN_MOTION_DOT>.829E-5</MEAN_MOTION_DOT><MEAN_MOTION_DDOT>0</MEAN_MOTION_DDOT></tleParameters></data></segment></body></omm>
<omm id="CCSDS_OMM_VERS" version="2.0">
<header><CREATION_DATE/><ORIGINATOR/></header><body><segment><metadata><OBJECT_NAME>KUIPER-00021</OBJECT_NAME><OBJECT_ID>2025-088N</OBJECT_ID><CENTER_NAME>EARTH</CENTER_NAME><REF_FRAME>TEME</REF_FRAME><TIME_SYSTEM>UTC</TIME_SYSTEM><MEAN_ELEMENT_THEORY>SGP4</MEAN_ELEMENT_THEORY></metadata><data><meanElements><EPOCH>2025-12-21T12:26:49.072128</EPOCH><MEAN_MOTION>14.79952502</MEAN_MOTION><ECCENTRICITY>.00071558</ECCENTRICITY><INCLINATION>51.9017</INCLINATION><RA_OF_ASC_NODE>89.7516</RA_OF_ASC_NODE><ARG_OF_PERICENTER>174.6900</ARG_OF_PERICENTER><MEAN_ANOMALY>185.4140</MEAN_ANOMALY></meanElements><tleParameters><EPHEMERIS_TYPE>0</EPHEMERIS_TYPE><CLASSIFICATION_TYPE>U</CLASSIFICATION_TYPE><NORAD_CAT_ID>63736</NORAD_CAT_ID><ELEMENT_SET_NO>999</ELEMENT_SET_NO><REV_AT_EPOCH>3590</REV_AT_EPOCH><BSTAR>.16962536E-3</BSTAR><MEAN_MOTION_DOT>.1071E-4</MEAN_MOTION_DOT><MEAN_MOTION_DDOT>0</MEAN_MOTION_DDOT></tleParameters></data></segment></body></omm>
<omm id="CCSDS_OMM_VERS" version="2.0">
<header><CREATION_DATE/><ORIGINATOR/></header><body><segment><metadata><OBJECT_NAME>KUIPER-00023</OBJECT_NAME><OBJECT_ID>2025-088P</OBJECT_ID><CENTER_NAME>EARTH</CENTER_NAME><REF_FRAME>TEME</REF_FRAME><TIME_SYSTEM>UTC</TIME_SYSTEM><MEAN_ELEMENT_THEORY>SGP4</MEAN_ELEMENT_THEORY></metadata><data><meanElements><EPOCH>2025-12-21T12:25:15.956256</EPOCH><MEAN_MOTION>14.79937951</MEAN_MOTION><ECCENTRICITY>.00116802</ECCENTRICITY><INCLINATION>51.9027</INCLINATION><RA_OF_ASC_NODE>91.2218</RA_OF_ASC_NODE><ARG_OF_PERICENTER>198.6648</ARG_OF_PERICENTER><MEAN_ANOMALY>161.3887</MEAN_ANOMALY></meanElements><tleParameters><EPHEMERIS_TYPE>0</EPHEMERIS_TYPE><CLASSIFICATION_TYPE>U</CLASSIFICATION_TYPE><NORAD_CAT_ID>63737</NORAD_CAT_ID><ELEMENT_SET_NO>999</ELEMENT_SET_NO><REV_AT_EPOCH>3618</REV_AT_EPOCH><BSTAR>.73100311E-3</BSTAR><MEAN_MOTION_DOT>.536E-4</MEAN_MOTION_DOT><MEAN_MOTION_DDOT>0</MEAN_MOTION_DDOT></tleParameters></data></segment></body></omm>
<omm id="CCSDS_OMM_VERS" version="2.0">
<header><CREATION_DATE/><ORIGINATOR/></header><body><segment><metadata><OBJECT_NAME>KUIPER-00024</OBJECT_NAME><OBJECT_ID>2025-088Q</OBJECT_ID><CENTER_NAME>EARTH</CENTER_NAME><REF_FRAME>TEME</REF_FRAME><TIME_SYSTEM>UTC</TIME_SYSTEM><MEAN_ELEMENT_THEORY>SGP4</MEAN_ELEMENT_THEORY></metadata><data><meanElements><EPOCH>2025-12-22T04:00:01.998720</EPOCH><MEAN_MOTION>14.79626055</MEAN_MOTION><ECCENTRICITY>.0000848</ECCENTRICITY><INCLINATION>51.9024</INCLINATION><RA_OF_ASC_NODE>75.8963</RA_OF_ASC_NODE><ARG_OF_PERICENTER>81.3287</ARG_OF_PERICENTER><MEAN_ANOMALY>68.2496</MEAN_ANOMALY></meanElements><tleParameters><EPHEMERIS_TYPE>0</EPHEMERIS_TYPE><CLASSIFICATION_TYPE>U</CLASSIFICATION_TYPE><NORAD_CAT_ID>63738</NORAD_CAT_ID><ELEMENT_SET_NO>999</ELEMENT_SET_NO><REV_AT_EPOCH>571</REV_AT_EPOCH><BSTAR>.88854E-2</BSTAR><MEAN_MOTION_DOT>.67704E-3</MEAN_MOTION_DOT><MEAN_MOTION_DDOT>0</MEAN_MOTION_DDOT></tleParameters></data></segment></body></omm>
<omm id="CCSDS_OMM_VERS" version="2.0">
<header><CREATION_DATE/><ORIGINATOR/></header><body><segment><metadata><OBJECT_NAME>KUIPER-00025</OBJECT_NAME><OBJECT_ID>2025-088R</OBJECT_ID><CENTER_NAME>EARTH</CENTER_NAME><REF_FRAME>TEME</REF_FRAME><TIME_SYSTEM>UTC</TIME_SYSTEM><MEAN_ELEMENT_THEORY>SGP4</MEAN_ELEMENT_THEORY></metadata><data><meanElements><EPOCH>2025-12-22T04:00:01.998720</EPOCH><MEAN_MOTION>14.79947971</MEAN_MOTION><ECCENTRICITY>.0000572</ECCENTRICITY><INCLINATION>51.9020</INCLINATION><RA_OF_ASC_NODE>84.4138</RA_OF_ASC_NODE><ARG_OF_PERICENTER>37.2479</ARG_OF_PERICENTER><MEAN_ANOMALY>162.2609</MEAN_ANOMALY></meanElements><tleParameters><EPHEMERIS_TYPE>0</EPHEMERIS_TYPE><CLASSIFICATION_TYPE>U</CLASSIFICATION_TYPE><NORAD_CAT_ID>63739</NORAD_CAT_ID><ELEMENT_SET_NO>999</ELEMENT_SET_NO><REV_AT_EPOCH>495</REV_AT_EPOCH><BSTAR>.46114E-2</BSTAR><MEAN_MOTION_DOT>.3513E-3</MEAN_MOTION_DOT><MEAN_MOTION_DDOT>0</MEAN_MOTION_DDOT></tleParameters></data></segment></body></omm>

</ndm>
