KUIPER-00016            
1 63732U 25088J   25355.98322510 -.00001722  00000+0 -19613-3 0  9990
2 63732  51.9016  95.2139 0013392 165.6952 194.4392 14.79930816 35824
KUIPER-00018            
1 63733U 25088K   25355.52294978  .00003197  00000+0  44814-3 0  9994
2 63733  51.9019  86.2045 0013310 188.6896 171.3838 14.79919070 35914
KUIPER-00019            
1 63734U 25088L   25355.65900510  .00001900  00000+0  27826-3 0  9999
2 63734  51.9001  84.1476 0009132 198.8485 161.2140 14.79930088 35955
KUIPER-00020            
1 63735U 25088M   25355.52022847  .00000829  00000+0  13796-3 0  9994
2 63735  51.9026  88.7443 0008825 178.2658 181.8336 14.79930802 36083
KUIPER-00021            
1 63736U 25088N   25355.51862352  .00001071  00000+0  16963-3 0  9996
2 63736  51.9017  89.7516 0007155 174.6900 185.4140 14.79952502 35905
KUIPER-00023            
1 63737U 25088P   25355.51754579  .00005360  00000+0  73100-3 0  9999
2 63737  51.9027  91.2218 0011680 198.6648 161.3887 14.79937951 36180
KUIPER-00024            
1 63738U 25088Q   25356.16668980  .00067704  00000+0  88854-2 0  9993
2 63738  51.9024  75.8963 0000848  81.3287  68.2496 14.79626055  5710
KUIPER-00025            
1 63739U 25088R   25356.16668980  .00035130  00000+0  46114-2 0  9995
2 63739  51.9020  84.4138 0000572  37.2479 162.2609 14.79947971  4953
